[{"OBJECT_NAME":"STARLINK-4452","OBJECT_ID":"2022-105L","EPOCH":"2026-03-09T15:08:11.408640","MEAN_MOTION":15.05649839,"ECCENTRICITY":0.0002377,"INCLINATION":97.603,"RA_OF_ASC_NODE":311.2055,"ARG_OF_PERICENTER":93.3957,"MEAN_ANOMALY":266.7541,"EPHEMERIS_TYPE":0,"CLASSIFICATION_TYPE":"U","NORAD_CAT_ID":53658,"ELEMENT_SET_NO":999,"REV_AT_EPOCH":19329,"BSTAR":2.8692e-5,"MEAN_MOTION_DOT":3.53e-6,"MEAN_MOTION_DDOT":0},{"OBJECT_NAME":"UNKNOWN","OBJECT_ID":"","EPOCH":"2026-03-08T16:53:53.910816","MEAN_MOTION":15.05228096,"ECCENTRICITY":0.0007208,"INCLINATION":85.8751,"RA_OF_ASC_NODE":153.385,"ARG_OF_PERICENTER":323.4201,"MEAN_ANOMALY":36.654,"EPHEMERIS_TYPE":0,"CLASSIFICATION_TYPE":"U","NORAD_CAT_ID":81343,"ELEMENT_SET_NO":999,"REV_AT_EPOCH":46724,"BSTAR":0.00071714,"MEAN_MOTION_DOT":0.00010274,"MEAN_MOTION_DDOT":0}]
